SL-14 R/B               
1 16792U 86046B   26047.25357795  .00000474  00000+0  51823-4 0  9998
2 16792  82.4801 100.4409 0021701 300.7974  59.1106 14.85569223123226
SL-14 R/B               
1 16882U 86055B   26047.31696466  .00000540  00000+0  59395-4 0  9992
2 16882  82.5230 146.7573 0019976  46.3595  13.3990 14.85620745116199
AJISAI (EGS)            
1 16908U 86061A   26047.27909711 -.00000114  00000+0 -11422-3 0  9990
2 16908  50.0082 159.1853 0011226 231.7970 222.4515 12.44515313465335
COSMOS 1812             
1 17295U 87003A   26047.25636404  .00403002  67769-4  78418-3 0  9990
2 17295  82.4754 220.0428 0002566 303.9121  56.1913 16.00248960141032
SL-14 R/B               
1 17567U 87024B   26047.22747255  .00000478  00000+0  51733-4 0  9991
2 17567  82.5277 112.9373 0017487 336.4365  23.6049 14.86111445 84946
COSMOS 1833             
1 17589U 87027A   26047.26946869 -.00000035  00000+0  71937-5 0  9993
2 17589  70.9225  11.0347 0024890 243.4512 116.4057 14.13057361  7290
SL-16 R/B               
1 17590U 87027B   26047.23460142  .00000125  00000+0  85596-4 0  9991
2 17590  71.0043 321.7059 0004633 180.8381 179.2736 14.17163196 12301
SL-14 R/B               
1 17912U 87038B   26047.21138263  .00000533  00000+0  59050-4 0  9994
2 17912  82.5038 317.0376 0017898 233.0675 126.8903 14.85348715 76046
COSMOS 1844             
1 17973U 87041A   26047.25663359  .00000403  00000+0  23394-3 0  9995
2 17973  70.8979  79.3852 0029013  52.1540 308.2201 14.14547920   558
SL-14 R/B               
1 18153U 87055B   26047.25944142  .00000594  00000+0  65496-4 0  9994
2 18153  82.5008   9.2243 0022362  84.7335 275.6432 14.85601990 66754
COSMOS 1867             
1 18187U 87060A   26047.27319214 -.00000035  00000+0  24325-4 0  9992
2 18187  65.0121   6.6788 0014162 277.3697  82.5778 14.31499565 16878
SL-14 R/B               
1 18749U 88001B   26046.98381103  .00000554  00000+0  61260-4 0  9999
2 18749  82.5114 215.7745 0016944 313.6567  46.3243 14.85500536 38806
