CCSDS_OMM_VERS = 2.0
CREATION_DATE  = 
ORIGINATOR     = 

OBJECT_NAME    = SL-14 R/B
OBJECT_ID      = 1986-046B
CENTER_NAME    = EARTH
REF_FRAME      = TEME
TIME_SYSTEM    = UTC
MEAN_ELEMENT_THEORY = SGP/SGP4

EPOCH          = 2026-02-16T06:05:09.134880
MEAN_MOTION    = 14.85569223
ECCENTRICITY   = .00217014
INCLINATION    = 82.4801
RA_OF_ASC_NODE = 100.4409
ARG_OF_PERICENTER = 300.7974
MEAN_ANOMALY   = 59.1106

EPHEMERIS_TYPE = 0
CLASSIFICATION_TYPE = U
NORAD_CAT_ID   = 16792
ELEMENT_SET_NO = 999
REV_AT_EPOCH   = 12322
BSTAR          = .51823291E-4
MEAN_MOTION_DOT = .474E-5
MEAN_MOTION_DDOT = 0

CCSDS_OMM_VERS = 2.0
CREATION_DATE  = 
ORIGINATOR     = 

OBJECT_NAME    = SL-14 R/B
OBJECT_ID      = 1986-055B
CENTER_NAME    = EARTH
REF_FRAME      = TEME
TIME_SYSTEM    = UTC
MEAN_ELEMENT_THEORY = SGP/SGP4

EPOCH          = 2026-02-16T07:36:25.746624
MEAN_MOTION    = 14.85620745
ECCENTRICITY   = .00199761
INCLINATION    = 82.5230
RA_OF_ASC_NODE = 146.7573
ARG_OF_PERICENTER = 46.3595
MEAN_ANOMALY   = 13.3990

EPHEMERIS_TYPE = 0
CLASSIFICATION_TYPE = U
NORAD_CAT_ID   = 16882
ELEMENT_SET_NO = 999
REV_AT_EPOCH   = 11619
BSTAR          = .5939452E-4
MEAN_MOTION_DOT = .54E-5
MEAN_MOTION_DDOT = 0

CCSDS_OMM_VERS = 2.0
CREATION_DATE  = 
ORIGINATOR     = 

OBJECT_NAME    = AJISAI (EGS)
OBJECT_ID      = 1986-061A
CENTER_NAME    = EARTH
REF_FRAME      = TEME
TIME_SYSTEM    = UTC
MEAN_ELEMENT_THEORY = SGP/SGP4

EPOCH          = 2026-02-16T06:41:53.990304
MEAN_MOTION    = 12.44515313
ECCENTRICITY   = .00112269
INCLINATION    = 50.0082
RA_OF_ASC_NODE = 159.1853
ARG_OF_PERICENTER = 231.7970
MEAN_ANOMALY   = 222.4515

EPHEMERIS_TYPE = 0
CLASSIFICATION_TYPE = U
NORAD_CAT_ID   = 16908
ELEMENT_SET_NO = 999
REV_AT_EPOCH   = 46533
BSTAR          = -.11421991E-3
MEAN_MOTION_DOT = -.114E-5
MEAN_MOTION_DDOT = 0

CCSDS_OMM_VERS = 2.0
CREATION_DATE  = 
ORIGINATOR     = 

OBJECT_NAME    = COSMOS 1812
OBJECT_ID      = 1987-003A
CENTER_NAME    = EARTH
REF_FRAME      = TEME
TIME_SYSTEM    = UTC
MEAN_ELEMENT_THEORY = SGP/SGP4

EPOCH          = 2026-02-16T06:09:09.853056
MEAN_MOTION    = 16.00248960
ECCENTRICITY   = .00025667
INCLINATION    = 82.4754
RA_OF_ASC_NODE = 220.0428
ARG_OF_PERICENTER = 303.9121
MEAN_ANOMALY   = 56.1913

EPHEMERIS_TYPE = 0
CLASSIFICATION_TYPE = U
NORAD_CAT_ID   = 17295
ELEMENT_SET_NO = 999
REV_AT_EPOCH   = 14103
BSTAR          = .78417977E-3
MEAN_MOTION_DOT = .403002E-2
MEAN_MOTION_DDOT = .67768804E-4

CCSDS_OMM_VERS = 2.0
CREATION_DATE  = 
ORIGINATOR     = 

OBJECT_NAME    = SL-14 R/B
OBJECT_ID      = 1987-024B
CENTER_NAME    = EARTH
REF_FRAME      = TEME
TIME_SYSTEM    = UTC
MEAN_ELEMENT_THEORY = SGP/SGP4

EPOCH          = 2026-02-16T05:27:33.628320
MEAN_MOTION    = 14.86111445
ECCENTRICITY   = .00174879
INCLINATION    = 82.5277
RA_OF_ASC_NODE = 112.9373
ARG_OF_PERICENTER = 336.4365
MEAN_ANOMALY   = 23.6049

EPHEMERIS_TYPE = 0
CLASSIFICATION_TYPE = U
NORAD_CAT_ID   = 17567
ELEMENT_SET_NO = 999
REV_AT_EPOCH   = 8494
BSTAR          = .51733227E-4
MEAN_MOTION_DOT = .478E-5
MEAN_MOTION_DDOT = 0

CCSDS_OMM_VERS = 2.0
CREATION_DATE  = 
ORIGINATOR     = 

OBJECT_NAME    = COSMOS 1833
OBJECT_ID      = 1987-027A
CENTER_NAME    = EARTH
REF_FRAME      = TEME
TIME_SYSTEM    = UTC
MEAN_ELEMENT_THEORY = SGP/SGP4

EPOCH          = 2026-02-16T06:28:02.094816
MEAN_MOTION    = 14.13057361
ECCENTRICITY   = .00248908
INCLINATION    = 70.9225
RA_OF_ASC_NODE = 11.0347
ARG_OF_PERICENTER = 243.4512
MEAN_ANOMALY   = 116.4057

EPHEMERIS_TYPE = 0
CLASSIFICATION_TYPE = U
NORAD_CAT_ID   = 17589
ELEMENT_SET_NO = 999
REV_AT_EPOCH   = 729
BSTAR          = .7193736E-5
MEAN_MOTION_DOT = -.35E-6
MEAN_MOTION_DDOT = 0

CCSDS_OMM_VERS = 2.0
CREATION_DATE  = 
ORIGINATOR     = 

OBJECT_NAME    = SL-16 R/B
OBJECT_ID      = 1987-027B
CENTER_NAME    = EARTH
REF_FRAME      = TEME
TIME_SYSTEM    = UTC
MEAN_ELEMENT_THEORY = SGP/SGP4

EPOCH          = 2026-02-16T05:37:49.562688
MEAN_MOTION    = 14.17163196
ECCENTRICITY   = .00046337
INCLINATION    = 71.0043
RA_OF_ASC_NODE = 321.7059
ARG_OF_PERICENTER = 180.8381
MEAN_ANOMALY   = 179.2736

EPHEMERIS_TYPE = 0
CLASSIFICATION_TYPE = U
NORAD_CAT_ID   = 17590
ELEMENT_SET_NO = 999
REV_AT_EPOCH   = 1230
BSTAR          = .85595872E-4
MEAN_MOTION_DOT = .125E-5
MEAN_MOTION_DDOT = 0

CCSDS_OMM_VERS = 2.0
CREATION_DATE  = 
ORIGINATOR     = 

OBJECT_NAME    = SL-14 R/B
OBJECT_ID      = 1987-038B
CENTER_NAME    = EARTH
REF_FRAME      = TEME
TIME_SYSTEM    = UTC
MEAN_ELEMENT_THEORY = SGP/SGP4

EPOCH          = 2026-02-16T05:04:23.459232
MEAN_MOTION    = 14.85348715
ECCENTRICITY   = .00178982
INCLINATION    = 82.5038
RA_OF_ASC_NODE = 317.0376
ARG_OF_PERICENTER = 233.0675
MEAN_ANOMALY   = 126.8903

EPHEMERIS_TYPE = 0
CLASSIFICATION_TYPE = U
NORAD_CAT_ID   = 17912
ELEMENT_SET_NO = 999
REV_AT_EPOCH   = 7604
BSTAR          = .59049866E-4
MEAN_MOTION_DOT = .533E-5
MEAN_MOTION_DDOT = 0

CCSDS_OMM_VERS = 2.0
CREATION_DATE  = 
ORIGINATOR     = 

OBJECT_NAME    = COSMOS 1844
OBJECT_ID      = 1987-041A
CENTER_NAME    = EARTH
REF_FRAME      = TEME
TIME_SYSTEM    = UTC
MEAN_ELEMENT_THEORY = SGP/SGP4

EPOCH          = 2026-02-16T06:09:33.142176
MEAN_MOTION    = 14.14547920
ECCENTRICITY   = .00290135
INCLINATION    = 70.8979
RA_OF_ASC_NODE = 79.3852
ARG_OF_PERICENTER = 52.1540
MEAN_ANOMALY   = 308.2201

EPHEMERIS_TYPE = 0
CLASSIFICATION_TYPE = U
NORAD_CAT_ID   = 17973
ELEMENT_SET_NO = 999
REV_AT_EPOCH   = 55
BSTAR          = .2339379E-3
MEAN_MOTION_DOT = .403E-5
MEAN_MOTION_DDOT = 0

CCSDS_OMM_VERS = 2.0
CREATION_DATE  = 
ORIGINATOR     = 

OBJECT_NAME    = SL-14 R/B
OBJECT_ID      = 1987-055B
CENTER_NAME    = EARTH
REF_FRAME      = TEME
TIME_SYSTEM    = UTC
MEAN_ELEMENT_THEORY = SGP/SGP4

EPOCH          = 2026-02-16T06:13:35.738688
MEAN_MOTION    = 14.85601990
ECCENTRICITY   = .0022362
INCLINATION    = 82.5008
RA_OF_ASC_NODE = 9.2243
ARG_OF_PERICENTER = 84.7335
MEAN_ANOMALY   = 275.6432

EPHEMERIS_TYPE = 0
CLASSIFICATION_TYPE = U
NORAD_CAT_ID   = 18153
ELEMENT_SET_NO = 999
REV_AT_EPOCH   = 6675
BSTAR          = .65496123E-4
MEAN_MOTION_DOT = .594E-5
MEAN_MOTION_DDOT = 0

CCSDS_OMM_VERS = 2.0
CREATION_DATE  = 
ORIGINATOR     = 

OBJECT_NAME    = COSMOS 1867
OBJECT_ID      = 1987-060A
CENTER_NAME    = EARTH
REF_FRAME      = TEME
TIME_SYSTEM    = UTC
MEAN_ELEMENT_THEORY = SGP/SGP4

EPOCH          = 2026-02-16T06:33:23.800896
MEAN_MOTION    = 14.31499565
ECCENTRICITY   = .0014162
INCLINATION    = 65.0121
RA_OF_ASC_NODE = 6.6788
ARG_OF_PERICENTER = 277.3697
MEAN_ANOMALY   = 82.5778

EPHEMERIS_TYPE = 0
CLASSIFICATION_TYPE = U
NORAD_CAT_ID   = 18187
ELEMENT_SET_NO = 999
REV_AT_EPOCH   = 1687
BSTAR          = .24325348E-4
MEAN_MOTION_DOT = -.35E-6
MEAN_MOTION_DDOT = 0

CCSDS_OMM_VERS = 2.0
CREATION_DATE  = 
ORIGINATOR     = 

OBJECT_NAME    = SL-14 R/B
OBJECT_ID      = 1988-001B
CENTER_NAME    = EARTH
REF_FRAME      = TEME
TIME_SYSTEM    = UTC
MEAN_ELEMENT_THEORY = SGP/SGP4

EPOCH          = 2026-02-15T23:36:41.272992
MEAN_MOTION    = 14.85500536
ECCENTRICITY   = .00169449
INCLINATION    = 82.5114
RA_OF_ASC_NODE = 215.7745
ARG_OF_PERICENTER = 313.6567
MEAN_ANOMALY   = 46.3243

EPHEMERIS_TYPE = 0
CLASSIFICATION_TYPE = U
NORAD_CAT_ID   = 18749
ELEMENT_SET_NO = 999
REV_AT_EPOCH   = 3880
BSTAR          = .61260198E-4
MEAN_MOTION_DOT = .554E-5
MEAN_MOTION_DDOT = 0

